NORAD_CAT_ID,OBJECT_NAME,OBJECT_TYPE,EPOCH,MEAN_MOTION,ECCENTRICITY,INCLINATION,RA_OF_ASC_NODE,ARG_OF_PERICENTER,MEAN_ANOMALY,BSTAR,MEAN_MOTION_DOT,MEAN_MOTION_DDOT,TLE_LINE0,TLE_LINE1,TLE_LINE2,SEMIMAJOR_AXIS,PERIOD,APOGEE,PERIGEE,DECAYED
56811.0,STARLINK-6063,PAYLOAD,2024-04-15 19:32:44,14.98361981,0.000289,70.0008,251.3059,262.9153,97.1678,-0.0004783,-5.8e-05,0.0,0 STARLINK-6063,1 56811U 23078AW  24106.81440562 -.00005800  00000-0 -47830-3 0  9994,2 56811  70.0008 251.3059 0002890 262.9153  97.1678 14.98361981 49887,6950.094,96.105,573.968,569.95,0.0
56811.0,STARLINK-6063,PAYLOAD,2024-04-16 13:10:14,14.98324645,0.0002923,70.0002,249.4525,271.5659,88.5166,6.2181e-05,6.49e-06,0.0,0 STARLINK-6063,1 56811U 23078AW  24107.54878019  .00000649  00000-0  62181-4 0  9998,2 56811  70.0002 249.4525 0002923 271.5659  88.5166 14.98324645 50256,6950.209,96.107,574.106,570.043,0.0
56811.0,STARLINK-6063,PAYLOAD,2024-04-16 14:46:22,14.98327895,0.0002921,70.0002,249.2841,271.5105,88.5719,7.3335e-05,7.82e-06,0.0,0 STARLINK-6063,1 56811U 23078AW  24107.61553796  .00000782  00000-0  73335-4 0  9999,2 56811  70.0002 249.2841 0002921 271.5105  88.5719 14.98327895 50006,6950.199,96.107,574.095,570.034,0.0
56811.0,STARLINK-6063,PAYLOAD,2024-04-16 19:34:46,14.98334611,0.0002576,70.001,248.7813,260.972,99.1148,0.00016873,1.921e-05,0.0,0 STARLINK-6063,1 56811U 23078AW  24107.81581042  .00001921  00000-0  16873-3 0  9995,2 56811  70.0010 248.7813 0002576 260.9720  99.1148 14.98334611 50298,6950.179,96.107,573.834,570.253,0.0
56811.0,STARLINK-6063,PAYLOAD,2024-04-17 13:12:16,14.9832009,0.0002955,70.0,246.9276,268.7631,91.319,-0.00014269,-1.795e-05,0.0,0 STARLINK-6063,1 56811U 23078AW  24108.55019001 -.00001795  00000-0 -14269-3 0  9996,2 56811  70.0000 246.9276 0002955 268.7631  91.3190 14.98320090 50408,6950.224,96.108,574.142,570.035,0.0
56811.0,STARLINK-6063,PAYLOAD,2024-04-17 19:36:44,14.98376578,0.0003032,69.9999,246.2547,275.7882,84.2932,0.00047126,5.541e-05,0.0,0 STARLINK-6063,1 56811U 23078AW  24108.81718063  .00005541  00000-0  47126-3 0  9998,2 56811  69.9999 246.2547 0003032 275.7882  84.2932 14.98376578 50440,6950.049,96.104,574.021,569.807,0.0
56811.0,STARLINK-6063,PAYLOAD,2024-04-18 11:38:09,14.98308785,0.0003239,70.0008,244.572,278.9598,81.1194,-0.0003425,-4.175e-05,0.0,0 STARLINK-6063,1 56811U 23078AW  24109.48482879 -.00004175  00000-0 -34250-3 0  9993,2 56811  70.0008 244.5720 0003239 278.9598  81.1194 14.98308785 50548,6950.258,96.108,574.375,569.872,0.0
56811.0,STARLINK-6063,PAYLOAD,2024-04-18 14:50:25,14.98309718,0.000309,70.0005,244.2353,274.1934,85.8872,-0.00031912,-3.897e-05,0.0,0 STARLINK-6063,1 56811U 23078AW  24109.61834878 -.00003897  00000-0 -31912-3 0  9990,2 56811  70.0005 244.2353 0003090 274.1934  85.8872 14.98309718 50306,6950.256,96.108,574.268,569.973,0.0
56811.0,STARLINK-6063,PAYLOAD,2024-04-18 16:26:33,14.98310802,0.0002803,70.001,244.0683,266.7137,93.3702,-0.00034652,-4.223e-05,0.0,0 STARLINK-6063,1 56811U 23078AW  24109.68510907 -.00004223  00000-0 -34652-3 0  9999,2 56811  70.0010 244.0683 0002803 266.7137  93.3702 14.98310802 50312,6950.252,96.108,574.065,570.169,0.0
56811.0,STARLINK-6063,PAYLOAD,2024-04-19 11:40:09,14.98314067,0.0003949,69.9982,242.0439,281.4623,78.6092,-7.6349e-05,-1.004e-05,0.0,0 STARLINK-6063,1 56811U 23078AW  24110.48622595 -.00001004  00000-0 -76349-4 0  9990,2 56811  69.9982 242.0439 0003949 281.4623  78.6092 14.98314067 50696,6950.242,96.108,574.852,569.363,0.0
56811.0,STARLINK-6063,PAYLOAD,2024-04-19 14:52:25,14.98316031,0.0003706,69.9991,241.7087,277.5428,82.531,-1.129e-05,-2.28e-06,0.0,0 STARLINK-6063,1 56811U 23078AW  24110.61974351 -.00000228  00000-0 -11290-4 0  9996,2 56811  69.9991 241.7087 0003706 277.5428  82.5310 14.98316031 50455,6950.236,96.108,574.677,569.525,0.0
56811.0,STARLINK-6063,PAYLOAD,2024-04-19 19:40:48,14.98330714,0.0002736,70.0014,241.2062,254.1261,105.9597,0.00012779,1.432e-05,0.0,0 STARLINK-6063,1 56811U 23078AW  24110.82000927  .00001432  00000-0  12779-3 0  9996,2 56811  70.0014 241.2062 0002736 254.1261 105.9597 14.98330714 50743,6950.191,96.107,573.957,570.154,0.0
56811.0,STARLINK-6063,PAYLOAD,2024-04-20 14:54:25,14.98317113,0.0002611,70.0023,239.1876,247.8182,112.27,0.00032316,3.764e-05,0.0,0 STARLINK-6063,1 56811U 23078AW  24111.62112660  .00003764  00000-0  32316-3 0  9992,2 56811  70.0023 239.1876 0002611 247.8182 112.2700 14.98317113 50605,6950.233,96.108,573.912,570.283,0.0
56811.0,STARLINK-6063,PAYLOAD,2024-04-20 18:06:41,14.98319837,0.0002544,70.0021,238.8501,258.9902,101.0971,0.00032717,3.812e-05,0.0,0 STARLINK-6063,1 56811U 23078AW  24111.75464651  .00003812  00000-0  32717-3 0  9995,2 56811  70.0021 238.8501 0002544 258.9902 101.0971 14.98319837 50625,6950.224,96.108,573.857,570.321,0.0
56811.0,STARLINK-6063,PAYLOAD,2024-04-21 13:20:20,14.98317018,0.0002564,70.0029,236.8348,240.361,119.7294,-0.0001428,-1.796e-05,0.0,0 STARLINK-6063,1 56811U 23078AW  24112.55578794 -.00001796  00000-0 -14280-3 0  9994,2 56811  70.0029 236.8348 0002564 240.3610 119.7294 14.98317018 50749,6950.233,96.108,573.88,570.316,0.0
56811.0,STARLINK-6063,PAYLOAD,2024-04-21 18:08:44,14.98320404,0.0002653,70.0021,236.3287,247.8443,112.2435,-9.318e-05,-1.204e-05,0.0,0 STARLINK-6063,1 56811U 23078AW  24112.75606565 -.00001204  00000-0 -93180-4 0  9995,2 56811  70.0021 236.3287 0002653 247.8443 112.2435 14.98320404 51034,6950.223,96.108,573.931,570.244,0.0
56811.0,STARLINK-6063,PAYLOAD,2024-04-22 10:10:04,14.98328317,0.0002789,70.0013,234.6433,257.9216,102.163,-8.6135e-06,-1.96e-06,0.0,0 STARLINK-6063,1 56811U 23078AW  24113.42365933 -.00000196  00000-0 -86135-5 0  9993,2 56811  70.0013 234.6433 0002789 257.9216 102.1630 14.98328317 51136,6950.198,96.107,574.002,570.125,0.0
56811.0,STARLINK-6063,PAYLOAD,2024-04-22 18:10:43,14.98339309,0.0002593,70.002,233.8022,253.201,106.8865,7.4548e-05,7.97e-06,0.0,0 STARLINK-6063,1 56811U 23078AW  24113.75744953  .00000797  00000-0  74548-4 0  9991,2 56811  70.0020 233.8022 0002593 253.2010 106.8865 14.98339309 51182,6950.164,96.106,573.831,570.227,0.0
56811.0,STARLINK-6063,PAYLOAD,2024-04-23 11:48:13,14.98318258,0.0002228,70.0036,231.9512,237.2142,122.8802,0.00013666,1.538e-05,0.0,0 STARLINK-6063,1 56811U 23078AW  24114.49182327  .00001538  00000-0  13666-3 0  9991,2 56811  70.0036 231.9512 0002228 237.2142 122.8802 14.98318258 51296,6950.229,96.108,573.643,570.546,0.0
56811.0,STARLINK-6063,PAYLOAD,2024-04-23 13:24:21,14.98318018,0.0002263,70.0035,231.7826,234.9684,125.1263,0.00013044,1.463e-05,0.0,0 STARLINK-6063,1 56811U 23078AW  24114.55858388  .00001463  00000-0  13044-3 0  9992,2 56811  70.0035 231.7826 0002263 234.9684 125.1263 14.98318018 51049,6950.23,96.108,573.668,570.522,0.0
56811.0,STARLINK-6063,PAYLOAD,2024-04-23 18:12:45,14.98323105,0.0002561,70.0022,231.2767,253.3791,106.7087,0.00012962,1.454e-05,0.0,0 STARLINK-6063,1 56811U 23078AW  24114.75886212  .00001454  00000-0  12962-3 0  9999,2 56811  70.0022 231.2767 0002561 253.3791 106.7087 14.98323105 51074,6950.214,96.107,573.859,570.299,0.0
56811.0,STARLINK-6063,PAYLOAD,2024-04-24 11:50:14,14.9832674,0.0002372,70.0028,229.4258,244.6272,115.4642,-3.7715e-05,-5.43e-06,0.0,0 STARLINK-6063,1 56811U 23078AW  24115.49322568 -.00000543  00000-0 -37715-4 0  9994,2 56811  70.0028 229.4258 0002372 244.6272 115.4642 14.98326740 51444,6950.203,96.107,573.717,570.419,0.0
56811.0,STARLINK-6063,PAYLOAD,2024-04-24 13:26:22,14.9832594,0.0002394,70.003,229.2581,244.5571,115.534,-4.3848e-05,-6.16e-06,0.0,0 STARLINK-6063,1 56811U 23078AW  24115.55998697 -.00000616  00000-0 -43848-4 0  9998,2 56811  70.0030 229.2581 0002394 244.5571 115.5340 14.98325940 51198,6950.205,96.107,573.734,570.407,0.0
56811.0,STARLINK-6063,PAYLOAD,2024-04-24 16:38:38,14.98328519,0.0002435,70.0027,228.9209,250.5033,109.5863,-2.2388e-05,-3.6e-06,0.0,0 STARLINK-6063,1 56811U 23078AW  24115.69350486 -.00000360  00000-0 -22388-4 0  9993,2 56811  70.0027 228.9209 0002435 250.5033 109.5863 14.98328519 51214,6950.197,96.107,573.755,570.37,0.0
56811.0,STARLINK-6063,PAYLOAD,2024-04-25 11:52:15,14.983253,0.0002946,70.002,226.9011,262.725,97.3574,6.0429e-05,6.28e-06,0.0,0 STARLINK-6063,1 56811U 23078AW  24116.49462415  .00000628  00000-0  60429-4 0  9991,2 56811  70.0020 226.9011 0002946 262.7250  97.3574 14.98325300 51598,6950.207,96.107,574.12,570.025,0.0
56811.0,STARLINK-6063,PAYLOAD,2024-04-25 15:04:31,14.98332986,0.0002908,70.0012,226.5624,265.5668,94.5159,8.5052e-05,9.22e-06,0.0,0 STARLINK-6063,1 56811U 23078AW  24116.62813904  .00000922  00000-0  85052-4 0  9995,2 56811  70.0012 226.5624 0002908 265.5668  94.5159 14.98332986 51357,6950.184,96.107,574.07,570.028,0.0
56811.0,STARLINK-6063,PAYLOAD,2024-04-25 16:40:38,14.98354748,0.000268,70.0021,226.3964,255.8997,104.1864,-0.00032864,-4.014e-05,0.0,0 STARLINK-6063,1 56811U 23078AW  24116.69489428 -.00004014  00000-0 -32864-3 0  9992,2 56811  70.0021 226.3964 0002680 255.8997 104.1864 14.98354748 51627,6950.116,96.105,573.844,570.119,0.0
56811.0,STARLINK-6063,PAYLOAD,2024-04-26 13:30:23,14.98337301,0.0003157,70.0007,224.2063,266.8863,93.1935,0.00012343,1.38e-05,0.0,0 STARLINK-6063,1 56811U 23078AW  24117.56277477  .00001380  00000-0  12343-3 0  9999,2 56811  70.0007 224.2063 0003157 266.8863  93.1935 14.98337301 51758,6950.17,96.107,574.229,569.841,0.0
56811.0,STARLINK-6063,PAYLOAD,2024-04-26 16:42:39,14.98339851,0.0002838,70.0015,223.8705,265.2167,94.8668,0.00010408,1.149e-05,0.0,0 STARLINK-6063,1 56811U 23078AW  24117.69629289  .00001149  00000-0  10408-3 0  9998,2 56811  70.0015 223.8705 0002838 265.2167  94.8668 14.98339851 51517,6950.162,96.106,574.0,570.055,0.0
56811.0,STARLINK-6063,PAYLOAD,2024-04-27 13:32:24,14.98340035,0.0002911,70.0007,221.6802,271.2434,88.8391,4.9457e-05,4.97e-06,0.0,0 STARLINK-6063,1 56811U 23078AW  24118.56417020  .00000497  00000-0  49457-4 0  9995,2 56811  70.0007 221.6802 0002911 271.2434  88.8391 14.98340035 51903,6950.162,96.106,574.05,570.004,0.0
